{
  "norad_id": 56915,
  "name": "STARLINK-5965",
  "history": [
    {
      "epoch": "2026-03-28T22:00:01.999584Z",
      "apogee_km": 486.6208816540011,
      "perigee_km": 484.5750768060925,
      "latitude_deg": -23.411259798880707,
      "longitude_deg": 137.922095944598,
      "height_km": 490.59495270961963,
      "semi_major_axis_km": 6863.7349792300465,
      "eccentricity": 0.00014903,
      "inclination_deg": 43.0004,
      "raan_deg": 321.7599,
      "arg_perigee_deg": 269.6954,
      "mean_anomaly_deg": 54.9298,
      "mean_motion_rev_day": 15.26729167
    },
    {
      "epoch": "2026-03-29T04:00:01.999584Z",
      "apogee_km": 486.7943940421437,
      "perigee_km": 484.44424387853087,
      "latitude_deg": -42.40057784535659,
      "longitude_deg": -29.378534765882563,
      "height_km": 497.4942742956229,
      "semi_major_axis_km": 6863.756318960337,
      "eccentricity": 0.0001712,
      "inclination_deg": 43.0006,
      "raan_deg": 320.3491,
      "arg_perigee_deg": 268.8663,
      "mean_anomaly_deg": 351.4276,
      "mean_motion_rev_day": 15.26722047
    }
  ]
}